{
  "type": "FeatureCollection",
  "features": [
    {
      "type": "Feature",
      "geometry": {
        "type": "Polygon",
        "coordinates": [
          [
            [
              -42.8898,
              -4.8947
            ],
            [
              -42.8539,
              -4.9373
            ],
            [
              -42.8632,
              -4.9681
            ],
            [
              -42.8354,
              -5.074
            ],
            [
              -42.8173,
              -5.1017
            ],
            [
              -42.799,
              -5.1897
            ],
            [
              -42.8295,
              -5.2393
            ],
            [
              -42.8122,
              -5.2824
            ],
            [
              -42.8158,
              -5.318
            ],
            [
              -42.7625,
              -5.3371
            ],
            [
              -42.7527,
              -5.3549
            ],
            [
              -42.769,
              -5.4316
            ],
            [
              -42.811,
              -5.4978
            ],
            [
              -42.8513,
              -5.4909
            ],
            [
              -42.847,
              -5.5253
            ],
            [
              -42.9434,
              -5.5355
            ],
            [
              -42.9707,
              -5.5617
            ],
            [
              -42.9418,
              -5.5866
            ],
            [
              -42.9146,
              -5.556
            ],
            [
              -42.8617,
              -5.5614
            ],
            [
              -42.8111,
              -5.5013
            ],
            [
              -42.7486,
              -5.5413
            ],
            [
              -42.7478,
              -5.5305
            ],
            [
              -42.7484,
              -5.4242
            ],
            [
              -42.7489,
              -5.3391
            ],
            [
              -42.6791,
              -5.2727
            ],
            [
              -42.6601,
              -5.2763
            ],
            [
              -42.6337,
              -5.2468
            ],
            [
              -42.6015,
              -5.2519
            ],
            [
              -42.599,
              -5.1943
            ],
            [
              -42.6018,
              -4.9043
            ],
            [
              -42.6341,
              -4.9132
            ],
            [
              -42.7129,
              -4.9056
            ],
            [
              -42.7314,
              -4.8238
            ],
            [
              -42.7886,
              -4.8176
            ],
            [
              -42.8159,
              -4.7863
            ],
            [
              -42.8927,
              -4.888
            ],
            [
              -42.8898,
              -4.8947
            ]
          ]
        ]
      },
      "properties": {
        "codarea": "2211001"
      }
    }
  ],
  "metadata": {
    "source": "IBGE — API de Malhas Geográficas",
    "source_url": "https://servicodados.ibge.gov.br/api/v3/malhas/municipios/2211001?formato=application/vnd.geo+json&qualidade=minima",
    "territorial_code": "2211001",
    "name": "Teresina",
    "license": "Dados públicos do IBGE; citar a fonte",
    "acquired_at": "2026-08-19T16:38:33Z",
    "quality": "mínima (API IBGE); adequada apenas à demonstração, não a levantamento de precisão",
    "crs": "EPSG:4326"
  }
}
